ORBCOMM FM24 [-]        
1 25478U 98053D   24114.92074912  .00003889  00000+0  13861-2 0  9995
2 25478  45.0068  93.1420 0003117 295.9467  64.1059 14.35562887337146
ORBCOMM FM25 [-]        
1 25479U 98053E   24114.95637477  .00003645  00000+0  13024-2 0  9991
2 25479  45.0064  91.2160 0005683 305.2675  54.7640 14.35542828337446
ORBCOMM FM26 [-]        
1 25480U 98053F   24114.32997523  .00003737  00000+0  13483-2 0  9996
2 25480  45.0063  88.2205 0007592 319.1822  40.8456 14.34998774337290
ORBCOMM FM27 [+]        
1 25481U 98053G   24114.87473461  .00003765  00000+0  13442-2 0  9993
2 25481  45.0044  91.8668 0001670 308.6765  51.3933 14.35527783337367
ORBCOMM FM28 [-]        
1 25482U 98053H   24114.58806467  .00003861  00000+0  13649-2 0  9994
2 25482  45.0059  31.7457 0005065 355.1689   4.9108 14.35972096337995
ORBCOMM FM30 [-]        
1 25980U 99065A   24114.43278779  .00003310  00000+0  11970-2 0  9998
2 25980  45.0312 273.2501 0005364  71.7403 288.4028 14.35143852274103
ORBCOMM FM31 [-]        
1 25981U 99065B   24114.46795507  .00003301  00000+0  11938-2 0  9999
2 25981  45.0222 266.7871 0002937 112.0920 248.0239 14.35146237274631
ORBCOMM FM32 [+]        
1 25982U 99065C   24114.50691415  .00003535  00000+0  13010-2 0  9990
2 25982  45.0152 280.2865 0005468 103.1045 257.0413 14.34120714274308
